NORAD_CAT_ID,OBJECT_NAME,OBJECT_TYPE,EPOCH,MEAN_MOTION,ECCENTRICITY,INCLINATION,RA_OF_ASC_NODE,ARG_OF_PERICENTER,MEAN_ANOMALY,BSTAR,MEAN_MOTION_DOT,MEAN_MOTION_DDOT,TLE_LINE0,TLE_LINE1,TLE_LINE2,SEMIMAJOR_AXIS,PERIOD,APOGEE,PERIGEE,DECAYED
56769.0,STARLINK-5978,PAYLOAD,2024-01-16 12:08:02,14.98330683,0.0002335,69.9998,179.1436,271.7287,88.3604,-1.9943e-06,-1.17e-06,0.0,0 STARLINK-5978,1 56769U 23078C   24016.50557884 -.00000117  00000-0 -19943-5 0  9990,2 56769  69.9998 179.1436 0002335 271.7287  88.3604 14.98330683 35139,6950.191,96.107,573.679,570.433,0.0
56769.0,STARLINK-5978,PAYLOAD,2024-01-16 13:44:10,14.98330288,0.0002379,69.9998,178.9752,273.309,86.7797,-6.5946e-06,-1.72e-06,0.0,0 STARLINK-5978,1 56769U 23078C   24016.57233923 -.00000172  00000-0 -65946-5 0  9997,2 56769  69.9998 178.9752 0002379 273.3090  86.7797 14.98330288 34882,6950.192,96.107,573.71,570.404,0.0
56769.0,STARLINK-5978,PAYLOAD,2024-01-16 20:08:42,14.98331693,0.0002428,69.9999,178.3022,275.1178,84.9704,1.4531e-05,8e-07,0.0,0 STARLINK-5978,1 56769U 23078C   24016.83937755  .00000080  00000-0  14531-4 0  9999,2 56769  69.9999 178.3022 0002428 275.1178  84.9704 14.98331693 34923,6950.188,96.107,573.74,570.365,0.0
56769.0,STARLINK-5978,PAYLOAD,2024-01-17 12:10:03,14.98328453,0.0002477,69.9999,176.6187,274.8942,85.1934,1.262e-05,5.8e-07,0.0,0 STARLINK-5978,1 56769U 23078C   24017.50697970  .00000058  00000-0  12620-4 0  9998,2 56769  69.9999 176.6187 0002477 274.8942  85.1934 14.98328453 35283,6950.198,96.107,573.784,570.341,0.0
56769.0,STARLINK-5978,PAYLOAD,2024-01-17 13:46:11,14.98327164,0.0002356,70.0,176.4494,271.4097,88.6792,3.2407e-05,2.94e-06,0.0,0 STARLINK-5978,1 56769U 23078C   24017.57373989  .00000294  00000-0  32407-4 0  9993,2 56769  70.0000 176.4494 0002356 271.4097  88.6792 14.98327164 35039,6950.202,96.107,573.704,570.429,0.0
56769.0,STARLINK-5978,PAYLOAD,2024-01-17 20:10:43,14.98329678,0.0002445,70.0001,175.7772,274.456,85.632,2.7969e-05,2.41e-06,0.0,0 STARLINK-5978,1 56769U 23078C   24017.84077878  .00000241  00000-0  27969-4 0  9990,2 56769  70.0001 175.7772 0002445 274.4560  85.6320 14.98329678 35078,6950.194,96.107,573.758,570.36,0.0
56769.0,STARLINK-5978,PAYLOAD,2024-01-18 12:12:03,14.98330101,0.0002599,70.0003,174.092,279.996,80.0905,2.7737e-05,2.38e-06,0.0,0 STARLINK-5978,1 56769U 23078C   24018.50837820  .00000238  00000-0  27737-4 0  9994,2 56769  70.0003 174.0920 0002599 279.9960  80.0905 14.98330101 35432,6950.193,96.107,573.864,570.251,0.0
56769.0,STARLINK-5978,PAYLOAD,2024-01-18 13:48:11,14.98329163,0.0002675,70.0001,173.9241,279.9934,80.0923,3.1621e-05,2.84e-06,0.0,0 STARLINK-5978,1 56769U 23078C   24018.57513868  .00000284  00000-0  31621-4 0  9992,2 56769  70.0001 173.9241 0002675 279.9934  80.0923 14.98329163 35188,6950.195,96.107,573.92,570.201,0.0
56769.0,STARLINK-5978,PAYLOAD,2024-01-18 20:12:44,14.98330649,0.0002472,70.0002,173.2516,275.16,84.9277,3.5404e-05,3.3e-06,0.0,0 STARLINK-5978,1 56769U 23078C   24018.84217787  .00000330  00000-0  35404-4 0  9998,2 56769  70.0002 173.2516 0002472 275.1600  84.9277 14.98330649 35221,6950.191,96.107,573.774,570.338,0.0
56769.0,STARLINK-5978,PAYLOAD,2024-01-19 12:14:04,14.98332557,0.0002604,70.0001,171.5682,278.2354,81.851,4.6906e-05,4.67e-06,0.0,0 STARLINK-5978,1 56769U 23078C   24019.50977597  .00000467  00000-0  46906-4 0  9994,2 56769  70.0001 171.5682 0002604 278.2354  81.8510 14.98332557 35587,6950.185,96.107,573.86,570.24,0.0
56769.0,STARLINK-5978,PAYLOAD,2024-01-19 13:50:12,14.98332331,0.0002616,70.0001,171.3999,278.2772,81.8091,4.2353e-05,4.12e-06,0.0,0 STARLINK-5978,1 56769U 23078C   24019.57653599  .00000412  00000-0  42353-4 0  9996,2 56769  70.0001 171.3999 0002616 278.2772  81.8091 14.98332331 35330,6950.186,96.107,573.869,570.233,0.0
56769.0,STARLINK-5978,PAYLOAD,2024-01-19 20:14:44,14.98333862,0.0002586,70.0002,170.7268,278.1294,81.9571,5.8075e-05,6e-06,0.0,0 STARLINK-5978,1 56769U 23078C   24019.84357406  .00000600  00000-0  58075-4 0  9991,2 56769  70.0002 170.7268 0002586 278.1294  81.9571 14.98333862 35375,6950.181,96.107,573.843,570.249,0.0
56769.0,STARLINK-5978,PAYLOAD,2024-01-20 12:16:05,14.9832977,0.0002573,70.0004,169.0437,280.9123,79.1747,2.1601e-05,1.65e-06,0.0,0 STARLINK-5978,1 56769U 23078C   24020.51117703  .00000165  00000-0  21601-4 0  9992,2 56769  70.0004 169.0437 0002573 280.9123  79.1747 14.98329770 35731,6950.194,96.107,573.847,570.27,0.0
56769.0,STARLINK-5978,PAYLOAD,2024-01-20 13:52:13,14.98329754,0.0002575,70.0004,168.8754,280.7451,79.3418,2.0854e-05,1.56e-06,0.0,0 STARLINK-5978,1 56769U 23078C   24020.57793708  .00000156  00000-0  20854-4 0  9992,2 56769  70.0004 168.8754 0002575 280.7451  79.3418 14.98329754 35485,6950.194,96.107,573.848,570.269,0.0
56769.0,STARLINK-5978,PAYLOAD,2024-01-20 20:16:45,14.98330296,0.0002579,70.0004,168.2019,280.7302,79.3566,2.1544e-05,1.64e-06,0.0,0 STARLINK-5978,1 56769U 23078C   24020.84497656  .00000164  00000-0  21544-4 0  9991,2 56769  70.0004 168.2019 0002579 280.7302  79.3566 14.98330296 35524,6950.192,96.107,573.849,570.265,0.0
56769.0,STARLINK-5978,PAYLOAD,2024-01-21 12:18:06,14.9833273,0.0002554,70.0004,166.5192,273.9293,86.1574,1.9078e-05,1.35e-06,0.0,0 STARLINK-5978,1 56769U 23078C   24021.51257371  .00000135  00000-0  19078-4 0  9991,2 56769  70.0004 166.5192 0002554 273.9293  86.1574 14.98332730 35882,6950.184,96.107,573.825,570.274,0.0
56769.0,STARLINK-5978,PAYLOAD,2024-01-21 20:18:46,14.98332777,0.0002554,70.0005,165.6777,272.8282,87.2585,1.6279e-05,1.01e-06,0.0,0 STARLINK-5978,1 56769U 23078C   24021.84637285  .00000101  00000-0  16279-4 0  9996,2 56769  70.0005 165.6777 0002554 272.8282  87.2585 14.98332777 35670,6950.184,96.107,573.824,570.274,0.0
56769.0,STARLINK-5978,PAYLOAD,2024-01-22 12:20:07,14.98329792,0.0002603,70.0004,163.9943,270.9816,89.1045,2.8408e-05,2.46e-06,0.0,0 STARLINK-5978,1 56769U 23078C   24022.51397371  .00000246  00000-0  28408-4 0  9997,2 56769  70.0004 163.9943 0002603 270.9816  89.1045 14.98329792 36038,6950.194,96.107,573.868,570.249,0.0
56769.0,STARLINK-5978,PAYLOAD,2024-01-22 18:44:39,14.98329641,0.0002616,70.0004,163.3212,271.2413,88.8447,2.3154e-05,1.83e-06,0.0,0 STARLINK-5978,1 56769U 23078C   24022.78101394  .00000183  00000-0  23154-4 0  9997,2 56769  70.0004 163.3212 0002616 271.2413  88.8447 14.98329641 35812,6950.194,96.107,573.877,570.241,0.0
56769.0,STARLINK-5978,PAYLOAD,2024-01-23 15:34:24,14.98329449,0.0002592,70.0007,161.1336,269.7238,90.3624,9.2522e-06,1.7e-07,0.0,0 STARLINK-5978,1 56769U 23078C   24023.64889460  .00000017  00000-0  92522-5 0  9992,2 56769  70.0007 161.1336 0002592 269.7238  90.3624 14.98329449 36203,6950.195,96.107,573.861,570.258,0.0
56769.0,STARLINK-5978,PAYLOAD,2024-01-23 18:46:40,14.98329656,0.0002589,70.0007,160.7972,269.8792,90.207,9.6573e-06,2.2e-07,0.0,0 STARLINK-5978,1 56769U 23078C   24023.78241419  .00000022  00000-0  96573-5 0  9999,2 56769  70.0007 160.7972 0002589 269.8792  90.2070 14.98329656 35962,6950.194,96.107,573.858,570.26,0.0
56769.0,STARLINK-5978,PAYLOAD,2024-01-24 14:00:17,14.98330511,0.0002653,70.0007,158.778,271.1135,88.972,4.2428e-05,4.13e-06,0.0,0 STARLINK-5978,1 56769U 23078C   24024.58353303  .00000413  00000-0  42428-4 0  9997,2 56769  70.0007 158.7780 0002653 271.1135  88.9720 14.98330511 36087,6950.191,96.107,573.9,570.212,0.0
56769.0,STARLINK-5978,PAYLOAD,2024-01-24 18:48:41,14.98333293,0.0002566,70.001,158.274,267.5039,92.5827,7.5228e-05,8.05e-06,0.0,0 STARLINK-5978,1 56769U 23078C   24024.78381019  .00000805  00000-0  75228-4 0  9993,2 56769  70.0010 158.2740 0002566 267.5039  92.5827 14.98333293 36378,6950.183,96.107,573.831,570.264,0.0
56769.0,STARLINK-5978,PAYLOAD,2024-01-25 14:02:18,14.98330295,0.0002543,70.0013,156.2549,260.1908,99.8963,3.4357e-05,3.17e-06,0.0,0 STARLINK-5978,1 56769U 23078C   24025.58493198  .00000317  00000-0  34357-4 0  9990,2 56769  70.0013 156.2549 0002543 260.1908  99.8963 14.98330295 36230,6950.192,96.107,573.824,570.29,0.0
56769.0,STARLINK-5978,PAYLOAD,2024-01-25 18:50:42,14.98325626,0.0002665,70.0009,155.7492,266.7215,93.3639,-2.5652e-05,-3.99e-06,0.0,0 STARLINK-5978,1 56769U 23078C   24025.78521718 -.00000399  00000-0 -25652-4 0  9992,2 56769  70.0009 155.7492 0002665 266.7215  93.3639 14.98325626 36527,6950.206,96.107,573.924,570.219,0.0
56769.0,STARLINK-5978,PAYLOAD,2024-01-26 10:52:02,14.98331296,0.0002821,70.0007,154.0656,267.5743,92.5093,4.7949e-05,4.79e-06,0.0,0 STARLINK-5978,1 56769U 23078C   24026.45281165  .00000479  00000-0  47949-4 0  9996,2 56769  70.0007 154.0656 0002821 267.5743  92.5093 14.98331296 36624,6950.189,96.107,574.015,570.093,0.0
56769.0,STARLINK-5978,PAYLOAD,2024-01-26 14:04:19,14.98329688,0.0002898,70.0003,153.7279,270.4447,89.638,2.8623e-05,2.49e-06,0.0,0 STARLINK-5978,1 56769U 23078C   24026.58633320  .00000249  00000-0  28623-4 0  9997,2 56769  70.0003 153.7279 0002898 270.4447  89.6380 14.98329688 36386,6950.194,96.107,574.073,570.045,0.0
56769.0,STARLINK-5978,PAYLOAD,2024-01-27 12:30:11,14.98330147,0.0002987,70.0001,151.3708,272.0245,88.0572,6.5564e-05,6.89e-06,0.0,0 STARLINK-5978,1 56769U 23078C   24027.52097075  .00000689  00000-0  65564-4 0  9996,2 56769  70.0001 151.3708 0002987 272.0245  88.0572 14.98330147 36780,6950.192,96.107,574.133,569.981,0.0
56769.0,STARLINK-5978,PAYLOAD,2024-01-27 14:06:19,14.98329109,0.0002935,70.0001,151.2023,270.5526,89.5297,7.8708e-05,8.46e-06,0.0,0 STARLINK-5978,1 56769U 23078C   24027.58773099  .00000846  00000-0  78708-4 0  9998,2 56769  70.0001 151.2023 0002935 270.5526  89.5297 14.98329109 36536,6950.196,96.107,574.101,570.021,0.0
56769.0,STARLINK-5978,PAYLOAD,2024-01-27 17:18:36,14.98330735,0.0002973,70.0001,150.8658,271.621,88.4609,6.93e-05,7.34e-06,0.0,0 STARLINK-5978,1 56769U 23078C   24027.72125024  .00000734  00000-0  69300-4 0  9997,2 56769  70.0001 150.8658 0002973 271.6210  88.4609 14.98330735 36553,6950.191,96.107,574.122,569.989,0.0
